[{"OBJECT_NAME":"FALCONSAT-10","OBJECT_ID":"2023-174AM","EPOCH":"2026-03-09T16:51:34.085376","MEAN_MOTION":15.26670596,"ECCENTRICITY":0.00089318,"INCLINATION":97.3865,"RA_OF_ASC_NODE":145.7938,"ARG_OF_PERICENTER":169.5942,"MEAN_ANOMALY":190.5483,"EPHEMERIS_TYPE":0,"CLASSIFICATION_TYPE":"U","NORAD_CAT_ID":58291,"ELEMENT_SET_NO":999,"REV_AT_EPOCH":12958,"BSTAR":0.00025968794,"MEAN_MOTION_DOT":6.748e-5,"MEAN_MOTION_DDOT":0},{"OBJECT_NAME":"STARLINK-31085","OBJECT_ID":"2023-200W","EPOCH":"2026-03-09T22:00:01.999584","MEAN_MOTION":15.26753513,"ECCENTRICITY":0.00010517,"INCLINATION":42.9993,"RA_OF_ASC_NODE":167.5665,"ARG_OF_PERICENTER":272.2063,"MEAN_ANOMALY":154.8258,"EPHEMERIS_TYPE":0,"CLASSIFICATION_TYPE":"U","NORAD_CAT_ID":58609,"ELEMENT_SET_NO":999,"REV_AT_EPOCH":577,"BSTAR":-0.00025109095,"MEAN_MOTION_DOT":-6.991e-5,"MEAN_MOTION_DDOT":0}]
